start=new Date('2022-04-09T00:00:00.000Z').valueOf();
sats=[{"BSTAR":"0.00075642000000","APOAPSIS":"548.137","MEAN_MOTION_DDOT":"0.0000000000000","SITE":"AFETR","SEMIMAJOR_AXIS":"6925.261","OBJECT_TYPE":"PAYLOAD","RCS_SIZE":"LARGE","OBJECT_ID":"2020-006E","PERIAPSIS":"546.115","RA_OF_ASC_NODE":"230.6556","MEAN_MOTION":"15.06428469","TIME_SYSTEM":"UTC","NORAD_CAT_ID":"45048","INCLINATION":"53.0526","MEAN_MOTION_DOT":"0.00011012","ELEMENT_SET_NO":"999","EPHEMERIS_TYPE":"0","REF_FRAME":"TEME","OBJECT_NAME":"STARLINK-1134","ECCENTRICITY":"0.00014600","EPOCH":"2022-04-08T16:21:13.093920","COUNTRY_CODE":"US","FILE":"3393990","CENTER_NAME":"EARTH","ARG_OF_PERICENTER":"66.2104","PERIOD":"95.590","MEAN_ELEMENT_THEORY":"SGP4","TLE_LINE1":"1 45048U 20006E   22098.68140155  .00011012  00000-0  75642-3 0  9992","MEAN_ANOMALY":"293.9038","GP_ID":"200778642","DECAY_DATE":null,"LAUNCH_DATE":"2020-01-29","REV_AT_EPOCH":"12077","TLE_LINE2":"2 45048  53.0526 230.6556 0001460  66.2104 293.9038 15.06428469120777","CLASSIFICATION_TYPE":"U"},{"SITE":"AFETR","BSTAR":"0.00131290000000","APOAPSIS":"543.458","MEAN_MOTION_DDOT":"0.0000000000000","OBJECT_TYPE":"PAYLOAD","SEMIMAJOR_AXIS":"6920.250","RCS_SIZE":"LARGE","PERIAPSIS":"540.772","OBJECT_ID":"2020-006F","NORAD_CAT_ID":"45049","MEAN_MOTION_DOT":"0.00020233","INCLINATION":"53.0537","MEAN_MOTION":"15.08065148","RA_OF_ASC_NODE":"229.5795","TIME_SYSTEM":"UTC","REF_FRAME":"TEME","OBJECT_NAME":"STARLINK-1135","ELEMENT_SET_NO":"999","EPHEMERIS_TYPE":"0","CENTER_NAME":"EARTH","ARG_OF_PERICENTER":"123.2904","MEAN_ELEMENT_THEORY":"SGP4","PERIOD":"95.487","EPOCH":"2022-04-08T20:28:52.290336","ECCENTRICITY":"0.00019410","COUNTRY_CODE":"US","FILE":"3393990","MEAN_ANOMALY":"236.8272","TLE_LINE1":"1 45049U 20006F   22098.85338299  .00020233  00000-0  13129-2 0  9996","REV_AT_EPOCH":"12080","TLE_LINE2":"2 45049  53.0537 229.5795 0001941 123.2904 236.8272 15.08065148120801","CLASSIFICATION_TYPE":"U","GP_ID":"200779893","DECAY_DATE":null,"LAUNCH_DATE":"2020-01-29"},{"REF_FRAME":"TEME","OBJECT_NAME":"STARLINK-1140","ELEMENT_SET_NO":"999","EPHEMERIS_TYPE":"0","CENTER_NAME":"EARTH","ARG_OF_PERICENTER":"54.3977","PERIOD":"95.591","MEAN_ELEMENT_THEORY":"SGP4","ECCENTRICITY":"0.00013660","EPOCH":"2022-04-08T15:01:35.732928","FILE":"3393990","COUNTRY_CODE":"US","MEAN_ANOMALY":"305.7139","TLE_LINE1":"1 45050U 20006G   22098.62610802  .00006659  00000-0  46531-3 0  9996","TLE_LINE2":"2 45050  53.0527 230.9057 0001366  54.3977 305.7139 15.06416706120765","REV_AT_EPOCH":"12076","CLASSIFICATION_TYPE":"U","GP_ID":"200779644","DECAY_DATE":null,"LAUNCH_DATE":"2020-01-29","SITE":"AFETR","BSTAR":"0.00046531000000","MEAN_MOTION_DDOT":"0.0000000000000","APOAPSIS":"548.108","SEMIMAJOR_AXIS":"6925.297","OBJECT_TYPE":"PAYLOAD","RCS_SIZE":"LARGE","PERIAPSIS":"546.216","OBJECT_ID":"2020-006G","NORAD_CAT_ID":"45050","INCLINATION":"53.0527","MEAN_MOTION_DOT":"0.00006659","RA_OF_ASC_NODE":"230.9057","MEAN_MOTION":"15.06416706","TIME_SYSTEM":"UTC"},{"PERIOD":"95.369","MEAN_ELEMENT_THEORY":"SGP4","CENTER_NAME":"EARTH","ARG_OF_PERICENTER":"47.0380","COUNTRY_CODE":"US","FILE":"3393990","ECCENTRICITY":"0.00004230","EPOCH":"2022-04-08T15:55:20.382240","OBJECT_NAME":"STARLINK-1141","REF_FRAME":"TEME","EPHEMERIS_TYPE":"0","ELEMENT_SET_NO":"999","CLASSIFICATION_TYPE":"U","TLE_LINE2":"2 45051  53.0512 229.0625 0000423  47.0380 313.0646 15.09917252120793","REV_AT_EPOCH":"12079","LAUNCH_DATE":"2020-01-29","GP_ID":"200778392","DECAY_DATE":null,"MEAN_ANOMALY":"313.0646","TLE_LINE1":"1 45051U 20006H   22098.66343035  .00021803  00000-0  13435-2 0  9996","RCS_SIZE":"LARGE","SEMIMAJOR_AXIS":"6914.590","OBJECT_TYPE":"PAYLOAD","SITE":"AFETR","MEAN_MOTION_DDOT":"0.0000000000000","APOAPSIS":"536.747","BSTAR":"0.00134350000000","INCLINATION":"53.0512","MEAN_MOTION_DOT":"0.00021803","NORAD_CAT_ID":"45051","TIME_SYSTEM":"UTC","MEAN_MOTION":"15.09917252","RA_OF_ASC_NODE":"229.0625","PERIAPSIS":"536.162","OBJECT_ID":"2020-006H"},{"RCS_SIZE":"LARGE","OBJECT_TYPE":"PAYLOAD","SEMIMAJOR_AXIS":"6925.322","SITE":"AFETR","APOAPSIS":"548.248","MEAN_MOTION_DDOT":"0.0000000000000","BSTAR":"0.00024875000000","MEAN_MOTION_DOT":"0.00003426","INCLINATION":"53.0530","NORAD_CAT_ID":"45052","TIME_SYSTEM":"UTC","RA_OF_ASC_NODE":"229.9819","MEAN_MOTION":"15.06408511","PERIAPSIS":"546.127","OBJECT_ID":"2020-006J","MEAN_ELEMENT_THEORY":"SGP4","PERIOD":"95.592","CENTER_NAME":"EARTH","ARG_OF_PERICENTER":"66.8417","COUNTRY_CODE":"US","FILE":"3393990","EPOCH":"2022-04-08T19:58:49.534464","ECCENTRICITY":"0.00015320","OBJECT_NAME":"STARLINK-1148","REF_FRAME":"TEME","EPHEMERIS_TYPE":"0","ELEMENT_SET_NO":"999","CLASSIFICATION_TYPE":"U","TLE_LINE2":"2 45052  53.0530 229.9819 0001532  66.8417 293.2733 15.06408511120796","REV_AT_EPOCH":"12079","LAUNCH_DATE":"2020-01-29","GP_ID":"200779142","DECAY_DATE":null,"MEAN_ANOMALY":"293.2733","TLE_LINE1":"1 45052U 20006J   22098.83251776  .00003426  00000-0  24875-3 0  9998"},{"SEMIMAJOR_AXIS":"6912.596","OBJECT_TYPE":"PAYLOAD","RCS_SIZE":"LARGE","BSTAR":"0.00144490000000","APOAPSIS":"535.442","MEAN_MOTION_DDOT":"0.0000000000000","SITE":"AFETR","RA_OF_ASC_NODE":"225.0092","MEAN_MOTION":"15.10570469","TIME_SYSTEM":"UTC","NORAD_CAT_ID":"45053","INCLINATION":"53.0002","MEAN_MOTION_DOT":"0.00023908","OBJECT_ID":"2020-006K","PERIAPSIS":"533.480","ECCENTRICITY":"0.00014190","EPOCH":"2022-04-08T19:37:29.611776","FILE":"3393990","COUNTRY_CODE":"US","CENTER_NAME":"EARTH","ARG_OF_PERICENTER":"50.9979","PERIOD":"95.328","MEAN_ELEMENT_THEORY":"SGP4","ELEMENT_SET_NO":"999","EPHEMERIS_TYPE":"0","REF_FRAME":"TEME","OBJECT_NAME":"STARLINK-1155","DECAY_DATE":null,"GP_ID":"200779394","LAUNCH_DATE":"2020-01-29","TLE_LINE2":"2 45053  53.0002 225.0092 0001419  50.9979 309.1137 15.10570469121177","REV_AT_EPOCH":"12117","CLASSIFICATION_TYPE":"U","TLE_LINE1":"1 45053U 20006K   22098.81770384  .00023908  00000-0  14449-2 0  9990","MEAN_ANOMALY":"309.1137"},{"RCS_SIZE":"LARGE","OBJECT_TYPE":"PAYLOAD","SEMIMAJOR_AXIS":"6925.287","SITE":"AFETR","MEAN_MOTION_DDOT":"0.0000000000000","APOAPSIS":"548.287","BSTAR":"0.00057104000000","MEAN_MOTION_DOT":"0.00008239","INCLINATION":"53.0527","NORAD_CAT_ID":"45054","TIME_SYSTEM":"UTC","MEAN_MOTION":"15.06420203","RA_OF_ASC_NODE":"230.6101","PERIAPSIS":"546.017","OBJECT_ID":"2020-006L","MEAN_ELEMENT_THEORY":"SGP4","PERIOD":"95.591","CENTER_NAME":"EARTH","ARG_OF_PERICENTER":"60.2998","COUNTRY_CODE":"US","FILE":"3393990","EPOCH":"2022-04-08T16:42:26.800128","ECCENTRICITY":"0.00016390","OBJECT_NAME":"STARLINK-1156","REF_FRAME":"TEME","EPHEMERIS_TYPE":"0","ELEMENT_SET_NO":"999","CLASSIFICATION_TYPE":"U","TLE_LINE2":"2 45054  53.0527 230.6101 0001639  60.2998 299.8154 15.06420203120776","REV_AT_EPOCH":"12077","LAUNCH_DATE":"2020-01-29","GP_ID":"200780144","DECAY_DATE":null,"MEAN_ANOMALY":"299.8154","TLE_LINE1":"1 45054U 20006L   22098.69614352  .00008239  00000-0  57104-3 0  9995"},{"COUNTRY_CODE":"US","FILE":"3393990","EPOCH":"2022-04-08T20:14:45.357792","ECCENTRICITY":"0.00015230","MEAN_ELEMENT_THEORY":"SGP4","PERIOD":"95.591","ARG_OF_PERICENTER":"63.2099","CENTER_NAME":"EARTH","EPHEMERIS_TYPE":"0","ELEMENT_SET_NO":"999","OBJECT_NAME":"STARLINK-1159","REF_FRAME":"TEME","LAUNCH_DATE":"2020-01-29","GP_ID":"200778892","DECAY_DATE":null,"CLASSIFICATION_TYPE":"U","TLE_LINE2":"2 45057  53.0539 229.9194 0001523  63.2099 296.9045 15.06413696120801","REV_AT_EPOCH":"12080","TLE_LINE1":"1 45057U 20006P   22098.84358053  .00006074  00000-0  42617-3 0  9996","MEAN_ANOMALY":"296.9045","RCS_SIZE":"LARGE","OBJECT_TYPE":"PAYLOAD","SEMIMAJOR_AXIS":"6925.307","APOAPSIS":"548.226","MEAN_MOTION_DDOT":"0.0000000000000","BSTAR":"0.00042617000000","SITE":"AFETR","TIME_SYSTEM":"UTC","RA_OF_ASC_NODE":"229.9194","MEAN_MOTION":"15.06413696","MEAN_MOTION_DOT":"0.00006074","INCLINATION":"53.0539","NORAD_CAT_ID":"45057","OBJECT_ID":"2020-006P","PERIAPSIS":"546.117"},{"OBJECT_TYPE":"PAYLOAD","SEMIMAJOR_AXIS":"6925.297","RCS_SIZE":"LARGE","SITE":"AFETR","BSTAR":"0.00045048000000","APOAPSIS":"548.286","MEAN_MOTION_DDOT":"0.0000000000000","NORAD_CAT_ID":"45058","MEAN_MOTION_DOT":"0.00006438","INCLINATION":"53.0524","MEAN_MOTION":"15.06416945","RA_OF_ASC_NODE":"229.9633","TIME_SYSTEM":"UTC","PERIAPSIS":"546.038","OBJECT_ID":"2020-006Q","CENTER_NAME":"EARTH","ARG_OF_PERICENTER":"57.0221","MEAN_ELEMENT_THEORY":"SGP4","PERIOD":"95.591","EPOCH":"2022-04-08T20:04:08.516352","ECCENTRICITY":"0.00016230","COUNTRY_CODE":"US","FILE":"3393990","REF_FRAME":"TEME","OBJECT_NAME":"STARLINK-1162","ELEMENT_SET_NO":"999","EPHEMERIS_TYPE":"0","REV_AT_EPOCH":"12080","TLE_LINE2":"2 45058  53.0524 229.9633 0001623  57.0221 303.0924 15.06416945120809","CLASSIFICATION_TYPE":"U","DECAY_DATE":null,"GP_ID":"200778643","LAUNCH_DATE":"2020-01-29","MEAN_ANOMALY":"303.0924","TLE_LINE1":"1 45058U 20006Q   22098.83620968  .00006438  00000-0  45048-3 0  9998"},{"RCS_SIZE":"LARGE","OBJECT_TYPE":"PAYLOAD","SEMIMAJOR_AXIS":"6925.326","SITE":"AFETR","APOAPSIS":"548.250","MEAN_MOTION_DDOT":"0.0000000000000","BSTAR":"0.00015212000000","MEAN_MOTION_DOT":"0.00001985","INCLINATION":"53.0540","NORAD_CAT_ID":"45059","TIME_SYSTEM":"UTC","MEAN_MOTION":"15.06407312","RA_OF_ASC_NODE":"229.8752","PERIAPSIS":"546.132","OBJECT_ID":"2020-006R","MEAN_ELEMENT_THEORY":"SGP4","PERIOD":"95.592","ARG_OF_PERICENTER":"62.4986","CENTER_NAME":"EARTH","COUNTRY_CODE":"US","FILE":"3393990","EPOCH":"2022-04-08T20:35:58.948224","ECCENTRICITY":"0.00015290","OBJECT_NAME":"STARLINK-1165","REF_FRAME":"TEME","EPHEMERIS_TYPE":"0","ELEMENT_SET_NO":"999","CLASSIFICATION_TYPE":"U","REV_AT_EPOCH":"12080","TLE_LINE2":"2 45059  53.0540 229.8752 0001529  62.4986 297.6159 15.06407312120808","LAUNCH_DATE":"2020-01-29","GP_ID":"200779894","DECAY_DATE":null,"MEAN_ANOMALY":"297.6159","TLE_LINE1":"1 45059U 20006R   22098.85832116  .00001985  00000-0  15212-3 0  9993"}];
